{"version": 0.6, "generator": "Overpass API 0.7.62.5 1bd436f1", "osm3s": {"timestamp_osm_base": "2025-06-05T13:59:45Z", "copyright": "The data included in this document is from www.openstreetmap.org. The data is made available under ODbL."}, "elements": [{"type": "node", "id": 922426889, "lat": 12.7628664, "lon": 75.0976749, "tags": {"amenity": "hospital", "name": "Government Hospital", "name:kn": "\u0cb8\u0cb0\u0ccd\u0c95\u0cbe\u0cb0\u0cbf \u0c86\u0cb8\u0ccd\u0caa\u0ca4\u0ccd\u0cb0\u0cc6"}}, {"type": "node", "id": 2309756789, "lat": 12.7297538, "lon": 75.1039055}, {"type": "node", "id": 2309756820, "lat": 12.7303594, "lon": 75.1032899}, {"type": "node", "id": 2309756829, "lat": 12.7295484, "lon": 75.1026194}, {"type": "node", "id": 2309756977, "lat": 12.7296216, "lon": 75.1038586}, {"type": "node", "id": 2309757059, "lat": 12.7298257, "lon": 75.103821}, {"type": "node", "id": 2309757088, "lat": 12.7293247, "lon": 75.1035354}, {"type": "node", "id": 2309757102, "lat": 12.7302025, "lon": 75.1039658}, {"type": "node", "id": 2309757106, "lat": 12.7304327, "lon": 75.1024048}, {"type": "node", "id": 2309757121, "lat": 12.7302286, "lon": 75.1034777}, {"type": "node", "id": 2309757133, "lat": 12.7297995, "lon": 75.1024263}, {"type": "node", "id": 2309757172, "lat": 12.7304484, "lon": 75.1031397}, {"type": "node", "id": 2309757260, "lat": 12.7299984, "lon": 75.1022278}, {"type": "node", "id": 2309757295, "lat": 12.7299304, "lon": 75.1039498}, {"type": "node", "id": 2309757337, "lat": 12.7299199, "lon": 75.1023243}, {"type": "node", "id": 2309757341, "lat": 12.7292868, "lon": 75.1026462}, {"type": "node", "id": 2309757410, "lat": 12.7293247, "lon": 75.102559}, {"type": "node", "id": 2309757422, "lat": 12.7292868, "lon": 75.1027374}, {"type": "node", "id": 2309757501, "lat": 12.7302286, "lon": 75.1022492}, {"type": "node", "id": 2309757528, "lat": 12.7304288, "lon": 75.1025429}, {"type": "node", "id": 2309757604, "lat": 12.7304222, "lon": 75.1027106}, {"type": "node", "id": 2309757664, "lat": 12.7295222, "lon": 75.1037942}, {"type": "node", "id": 2309757666, "lat": 12.7297014, "lon": 75.1025322}, {"type": "node", "id": 2309757710, "lat": 12.7303542, "lon": 75.1023082}, {"type": "node", "id": 2487714445, "lat": 12.882498, "lon": 75.0317995, "tags": {"addr:city": "B C ROad", "addr:district": "Dakshina Kannada", "addr:full": "P.O. Jodumarga Tq D.K.,Bantwal", "addr:postcode": "574219", "addr:state": "Karnataka", "addr:street": "NH 48", "amenity": "hospital", "emergency": "yes", "name": "M/S Somayaji Hospital", "source": "OpenGovernmentData"}}, {"type": "node", "id": 6948574726, "lat": 12.8447745, "lon": 75.0709292, "tags": {"addr:district": "Dakshina Kannada", "addr:full": "Main Road, Bantwala Taluk", "addr:postcode": "574222", "addr:state": "Karnataka", "amenity": "hospital", "name": "Pushparaj Hospital", "source": "OpenGovernmentData"}}, {"type": "node", "id": 7202724046, "lat": 12.8937532, "lon": 75.0414049, "tags": {"addr:block": "BANTWAL", "addr:district": "Dakshina Kannada", "addr:full": "Bantwal", "addr:postcode": "574211", "addr:state": "Karnataka", "addr:subdistrict": "Bantval", "amenity": "hospital", "description": "Sub-District Hospital", "name": "Bantwal Taluka Hospital", "name:kn": "\u0cac\u0c82\u0c9f\u0ccd\u0cb5\u0cbe\u0cb3 \u0ca4\u0cbe\u0cb2\u0cc2\u0c95\u0cc1 \u0c86\u0cb8\u0ccd\u0caa\u0ca4\u0ccd\u0cb0\u0cc6", "source": "OpenGovernmentData"}}, {"type": "node", "id": 7213565706, "lat": 12.8940214, "lon": 75.0415582, "tags": {"addr:district": "Dakshina Kannada", "addr:full": "Bantwal", "addr:postcode": "574211", "addr:state": "Karnataka", "amenity": "hospital", "name": "Taluk General Hospital", "name:kn": "\u0ca4\u0cbe\u0cb2\u0cc2\u0c95\u0cc1 \u0cb8\u0cbe\u0cb0\u0ccd\u0cb5\u0c9c\u0ca8\u0cbf\u0c95 \u0c86\u0cb8\u0ccd\u0caa\u0ca4\u0ccd\u0cb0\u0cc6", "source": "OpenGovernmentData"}}, {"type": "node", "id": 7562741530, "lat": 12.7414351, "lon": 75.0822282, "tags": {"addr:district": "Dakshina Kannada", "addr:full": "Padmagiri, Jeddu, Alike", "addr:postcode": "574235", "addr:state": "Karnataka", "amenity": "hospital", "name": "Jeddu Ayurveda Speciality Hospital", "source": "Local Knowledge"}}, {"type": "node", "id": 7695051433, "lat": 12.8672046, "lon": 74.9695734}, {"type": "node", "id": 7695051434, "lat": 12.86724, "lon": 74.9695672}, {"type": "node", "id": 7695051435, "lat": 12.8671979, "lon": 74.9695364}, {"type": "node", "id": 7695051436, "lat": 12.8672332, "lon": 74.9695297}, {"type": "node", "id": 7695051437, "lat": 12.8673653, "lon": 74.9695451}, {"type": "node", "id": 7695051438, "lat": 12.8671823, "lon": 74.9695773}, {"type": "node", "id": 7695051439, "lat": 12.8672005, "lon": 74.9696866}, {"type": "node", "id": 7695051440, "lat": 12.8673836, "lon": 74.9696544}, {"type": "node", "id": 8188035990, "lat": 12.9049935, "lon": 74.9819402, "tags": {"addr:full": "Benajanapadavu, Bejanapadavu, Karnataka", "addr:state": "Karnataka", "amenity": "hospital", "name": "Government Hospital", "name:kn": "\u0cb8\u0cb0\u0ccd\u0c95\u0cbe\u0cb0\u0cbf \u0c86\u0cb8\u0ccd\u0caa\u0ca4\u0ccd\u0cb0\u0cc6"}}, {"type": "node", "id": 8188036026, "lat": 12.8908752, "lon": 75.0835468, "tags": {"addr:full": "Navoor, Navoor, Karnataka", "addr:state": "Karnataka", "amenity": "hospital", "name": "Government Hospital", "name:kn": "\u0cb8\u0cb0\u0ccd\u0c95\u0cbe\u0cb0\u0cbf \u0c86\u0cb8\u0ccd\u0caa\u0ca4\u0ccd\u0cb0\u0cc6"}}, {"type": "node", "id": 8188036099, "lat": 12.8635753, "lon": 75.0517889, "tags": {"addr:full": "R R Commercial Centre 1,2,3 floor Melkar panemangalore, Melkar, Bantwal, Karnataka", "addr:state": "Karnataka", "amenity": "hospital", "name": "R R Maternity & General Hospital"}}, {"type": "node", "id": 8188036128, "lat": 12.8349409, "lon": 75.122666, "tags": {"addr:full": "Mani, Karnataka", "addr:state": "Karnataka", "amenity": "hospital", "name": "Government hospital", "name:kn": "\u0cb8\u0cb0\u0ccd\u0c95\u0cbe\u0cb0\u0cbf \u0c86\u0cb8\u0ccd\u0caa\u0ca4\u0ccd\u0cb0\u0cc6"}}, {"type": "node", "id": 8188038873, "lat": 12.9645651, "lon": 75.0978624, "tags": {"addr:full": "Vamadapadavu, Vamadapadavu, Karnataka", "addr:state": "Karnataka", "amenity": "hospital", "name": "Government Hospital", "name:kn": "\u0cb8\u0cb0\u0ccd\u0c95\u0cbe\u0cb0\u0cbf \u0c86\u0cb8\u0ccd\u0caa\u0ca4\u0ccd\u0cb0\u0cc6"}}, {"type": "way", "id": 222001908, "nodes": [2309757260, 2309757501, 2309757710, 2309757106, 2309757528, 2309757604, 2309757172, 2309756820, 2309757121, 2309757102, 2309757295, 2309757059, 2309756789, 2309756977, 2309757664, 2309757088, 2309757422, 2309757341, 2309757410, 2309756829, 2309757666, 2309757133, 2309757337, 2309757260], "tags": {"amenity": "hospital", "name": "Satya Sai General Hospital, Alike"}}, {"type": "way", "id": 824166165, "nodes": [7695051433, 7695051435, 7695051436, 7695051434, 7695051437, 7695051440, 7695051439, 7695051438, 7695051433], "tags": {"amenity": "hospital", "building": "yes", "name": "Sujeer Government Hospital"}}]}